ONEWEB-0665             
1 55825U 23029AF  24225.82044800 -.00000060  00000+0 -19598-3 0  9994
2 55825  87.8923  63.6581 0001516  76.9328 283.1971 13.14502059 70942
ONEWEB-0666             
1 55826U 23029AG  24225.93455623  .00000205  00000+0  47305-3 0  9992
2 55826  87.9188  48.4016 0002211  92.3027 267.8360 13.20772290 72285
ONEWEB-0667             
1 55827U 23029AH  24225.92823359  .00000235  00000+0  54710-3 0  9998
2 55827  87.9189  48.3362 0001669  78.9126 281.2195 13.20773636 72276
ONEWEB-0669             
1 55828U 23029AJ  24225.92351256  .00000194  00000+0  44464-3 0  9990
2 55828  87.9189  48.3745 0002503  80.7126 279.4290 13.20772616 72273
ONEWEB-0670             
1 55829U 23029AK  24225.95049481  .00000068  00000+0  14944-3 0  9998
2 55829  87.8929  63.6398 0001699  68.3618 291.7693 13.14504740 70986
ONEWEB-0671             
1 55830U 23029AL  24225.12802853  .00000056  00000+0  10784-3 0  9994
2 55830  87.9107  79.0880 0001646  73.9902 286.1411 13.19726382 69992
ONEWEB-0672             
1 55831U 23029AM  24225.91878382  .00000178  00000+0  40530-3 0  9999
2 55831  87.9189  48.3595 0002085  93.6132 266.5240 13.20773578 72275
ONEWEB-0673             
1 55832U 23029AN  24225.86250367  .00000126  00000+0  28328-3 0  9995
2 55832  87.9105  78.9078 0001610  75.2828 284.8483 13.19724248 70098
